{
    "links": {
        "self": "http://www.neowsapp.com/rest/v1/neo/3549562?api_key=iIulBulltgU6a56xZRHN4H3l9WmuAYTsLGpBGhQ2"
    },
    "id": "3549562",
    "neo_reference_id": "3549562",
    "name": "(2010 TK167)",
    "designation": "2010 TK167",
    "nasa_jpl_url": "http://ssd.jpl.nasa.gov/sbdb.cgi?sstr=3549562",
    "absolute_magnitude_h": 23.1,
    "estimated_diameter": {
        "kilometers": {
            "estimated_diameter_min": 0.063760979,
            "estimated_diameter_max": 0.1425738833
        },
        "meters": {
            "estimated_diameter_min": 63.7609789875,
            "estimated_diameter_max": 142.5738833281
        },
        "miles": {
            "estimated_diameter_min": 0.0396192233,
            "estimated_diameter_max": 0.0885912765
        },
        "feet": {
            "estimated_diameter_min": 209.1895703015,
            "estimated_diameter_max": 467.7620993781
        }
    },
    "is_potentially_hazardous_asteroid": false,
    "close_approach_data": [
        {
            "close_approach_date": "2010-10-25",
            "close_approach_date_full": "2010-Oct-25 14:51",
            "epoch_date_close_approach": 1288018260000,
            "relative_velocity": {
                "kilometers_per_second": "14.1521631757",
                "kilometers_per_hour": "50947.7874324066",
                "miles_per_hour": "31656.9738076529"
            },
            "miss_distance": {
                "astronomical": "0.0658391125",
                "lunar": "25.6114147625",
                "kilometers": "9849390.992690375",
                "miles": "6120127.768762175"
            },
            "orbiting_body": "Earth"
        }
    ],
    "orbital_data": {
        "orbit_id": "10",
        "orbit_determination_date": "2017-04-06 08:56:15",
        "first_observation_date": "2010-10-14",
        "last_observation_date": "2010-10-26",
        "data_arc_in_days": 12,
        "observations_used": 42,
        "orbit_uncertainty": "8",
        "minimum_orbit_intersection": ".0641775",
        "jupiter_tisserand_invariant": "2.706",
        "epoch_osculation": "2455486.5",
        "eccentricity": ".6863270837877004",
        "semi_major_axis": "3.203309846990597",
        "inclination": "18.61431910760444",
        "ascending_node_longitude": "205.3242315741255",
        "orbital_period": "2094.097267038342",
        "perihelion_distance": "1.004791541237116",
        "perihelion_argument": "212.3034369925932",
        "aphelion_distance": "5.401828152744078",
        "perihelion_time": "2455516.279417870987",
        "mean_anomaly": "354.8805671053105",
        "mean_motion": ".1719117854105908",
        "equinox": "J2000",
        "orbit_class": {
            "orbit_class_type": "APO",
            "orbit_class_description": "Near-Earth asteroid orbits which cross the Earth’s orbit similar to that of 1862 Apollo",
            "orbit_class_range": "a (semi-major axis) > 1.0 AU; q (perihelion) < 1.017 AU"
        }
    },
    "is_sentry_object": false
}